{
  "type": "FeatureCollection",
  "features": [
    {
      "type": "Feature",
      "properties": {
        "norad_id": 41773,
        "name": "SKYSAT-C2",
        "group": "resource",
        "lat": 36.760038284907836,
        "lon": -149.01027000958538,
        "alt_km": 452.23615973180677,
        "timestamp": "2025-12-27T19:21:58.432049+00:00",
        "meta_object_name": "SKYSAT-C2",
        "meta_object_id": "2016-058D",
        "meta_epoch": "2025-12-27T07:48:50.206176",
        "meta_mean_motion": 15.37603061,
        "meta_eccentricity": 0.0002519,
        "meta_inclination": 97.0354,
        "meta_ra_of_asc_node": 25.2352,
        "meta_arg_of_pericenter": 348.3195,
        "meta_mean_anomaly": 11.7991,
        "meta_ephemeris_type": 0,
        "meta_classification_type": "U",
        "meta_norad_cat_id": 41773,
        "meta_element_set_no": 999,
        "meta_rev_at_epoch": 51860,
        "meta_bstar": 0.00034154,
        "meta_mean_motion_dot": 0.00012534,
        "meta_mean_motion_ddot": 0,
        "tle_line1": "1 41773U 16058D   25361.32558109  .00012534  00000+0  34154-3 0  9996",
        "tle_line2": "2 41773  97.0354  25.2352 0002519 348.3195  11.7991 15.37603061518601"
      },
      "geometry": {
        "type": "Point",
        "coordinates": [
          -149.01027000958538,
          36.760038284907836
        ]
      }
    },
    {
      "type": "Feature",
      "properties": {
        "norad_id": 41774,
        "name": "SKYSAT-C3",
        "group": "resource",
        "lat": 2.3670568271635513,
        "lon": 34.56599027371309,
        "alt_km": 434.6002971121861,
        "timestamp": "2025-12-27T19:21:58.432058+00:00",
        "meta_object_name": "SKYSAT-C3",
        "meta_object_id": "2016-058E",
        "meta_epoch": "2025-12-27T02:15:23.553504",
        "meta_mean_motion": 15.4491929,
        "meta_eccentricity": 0.00021259,
        "meta_inclination": 96.9283,
        "meta_ra_of_asc_node": 34.1738,
        "meta_arg_of_pericenter": 105.0525,
        "meta_mean_anomaly": 255.0961,
        "meta_ephemeris_type": 0,
        "meta_classification_type": "U",
        "meta_norad_cat_id": 41774,
        "meta_element_set_no": 999,
        "meta_rev_at_epoch": 51947,
        "meta_bstar": 0.00045270234,
        "meta_mean_motion_dot": 0.00021233,
        "meta_mean_motion_ddot": 0,
        "tle_line1": "1 41774U 16058E   25361.09402261  .00021233  00000+0  45270-3 0  9995",
        "tle_line2": "2 41774  96.9283  34.1738 0002125 105.0525 255.0961 15.44919290519474"
      },
      "geometry": {
        "type": "Point",
        "coordinates": [
          34.56599027371309,
          2.3670568271635513
        ]
      }
    },
    {
      "type": "Feature",
      "properties": {
        "norad_id": 41785,
        "name": "ALSAT 1B",
        "group": "resource",
        "lat": -69.62089301170496,
        "lon": 171.34784880285628,
        "alt_km": 669.087521272264,
        "timestamp": "2025-12-27T19:21:58.432067+00:00",
        "meta_object_name": "ALSAT 1B",
        "meta_object_id": "2016-059C",
        "meta_epoch": "2025-12-27T13:20:07.866240",
        "meta_mean_motion": 14.72092707,
        "meta_eccentricity": 0.0010698,
        "meta_inclination": 97.7812,
        "meta_ra_of_asc_node": 12.7055,
        "meta_arg_of_pericenter": 61.8792,
        "meta_mean_anomaly": 298.3496,
        "meta_ephemeris_type": 0,
        "meta_classification_type": "U",
        "meta_norad_cat_id": 41785,
        "meta_element_set_no": 999,
        "meta_rev_at_epoch": 49532,
        "meta_bstar": 0.00016775,
        "meta_mean_motion_dot": 1.009e-05,
        "meta_mean_motion_ddot": 0,
        "tle_line1": "1 41785U 16059C   25361.55564660  .00001009  00000+0  16775-3 0  9998",
        "tle_line2": "2 41785  97.7812  12.7055 0010698  61.8792 298.3496 14.72092707495321"
      },
      "geometry": {
        "type": "Point",
        "coordinates": [
          171.34784880285628,
          -69.62089301170496
        ]
      }
    },
    {
      "type": "Feature",
      "properties": {
        "norad_id": 41787,
        "name": "PATHFINDER 1",
        "group": "resource",
        "lat": 71.02001043877195,
        "lon": -19.650735949944917,
        "alt_km": 646.2078168257785,
        "timestamp": "2025-12-27T19:21:58.432076+00:00",
        "meta_object_name": "PATHFINDER 1",
        "meta_object_id": "2016-059E",
        "meta_epoch": "2025-12-27T10:51:18.853920",
        "meta_mean_motion": 14.6734795,
        "meta_eccentricity": 0.002947,
        "meta_inclination": 97.8139,
        "meta_ra_of_asc_node": 3.5432,
        "meta_arg_of_pericenter": 36.203,
        "meta_mean_anomaly": 324.1162,
        "meta_ephemeris_type": 0,
        "meta_classification_type": "U",
        "meta_norad_cat_id": 41787,
        "meta_element_set_no": 999,
        "meta_rev_at_epoch": 49452,
        "meta_bstar": 0.00019025,
        "meta_mean_motion_dot": 1.035e-05,
        "meta_mean_motion_ddot": 0,
        "tle_line1": "1 41787U 16059E   25361.45230155  .00001035  00000+0  19025-3 0  9998",
        "tle_line2": "2 41787  97.8139   3.5432 0029470  36.2030 324.1162 14.67347950494528"
      },
      "geometry": {
        "type": "Point",
        "coordinates": [
          -19.650735949944917,
          71.02001043877195
        ]
      }
    },
    {
      "type": "Feature",
      "properties": {
        "norad_id": 41790,
        "name": "SCATSAT 1",
        "group": "resource",
        "lat": -25.20803296682703,
        "lon": 62.529395582711885,
        "alt_km": 648.7884329756935,
        "timestamp": "2025-12-27T19:21:58.432085+00:00",
        "meta_object_name": "SCATSAT 1",
        "meta_object_id": "2016-059H",
        "meta_epoch": "2025-12-27T11:21:45.697248",
        "meta_mean_motion": 14.7898416,
        "meta_eccentricity": 0.0056435,
        "meta_inclination": 98.1444,
        "meta_ra_of_asc_node": 58.3264,
        "meta_arg_of_pericenter": 81.5943,
        "meta_mean_anomaly": 279.1659,
        "meta_ephemeris_type": 0,
        "meta_classification_type": "U",
        "meta_norad_cat_id": 41790,
        "meta_element_set_no": 999,
        "meta_rev_at_epoch": 7620,
        "meta_bstar": 0.00022658,
        "meta_mean_motion_dot": 1.662e-05,
        "meta_mean_motion_ddot": 0,
        "tle_line1": "1 41790U 16059H   25361.47344557  .00001662  00000+0  22658-3 0  9998",
        "tle_line2": "2 41790  98.1444  58.3264 0056435  81.5943 279.1659 14.78984160 76206"
      },
      "geometry": {
        "type": "Point",
        "coordinates": [
          62.529395582711885,
          -25.20803296682703
        ]
      }
    },
    {
      "type": "Feature",
      "properties": {
        "norad_id": 41875,
        "name": "GOKTURK 1A",
        "group": "resource",
        "lat": -79.80244561049666,
        "lon": 21.232360461862477,
        "alt_km": 692.4085748338639,
        "timestamp": "2025-12-27T19:21:58.432094+00:00",
        "meta_object_name": "GOKTURK 1A",
        "meta_object_id": "2016-073A",
        "meta_epoch": "2025-12-27T11:35:49.316352",
        "meta_mean_motion": 14.62796477,
        "meta_eccentricity": 0.0001288,
        "meta_inclination": 98.1422,
        "meta_ra_of_asc_node": 253.6521,
        "meta_arg_of_pericenter": 82.5721,
        "meta_mean_anomaly": 277.5627,
        "meta_ephemeris_type": 0,
        "meta_classification_type": "U",
        "meta_norad_cat_id": 41875,
        "meta_element_set_no": 999,
        "meta_rev_at_epoch": 48372,
        "meta_bstar": 0.00010881,
        "meta_mean_motion_dot": 5.08e-06,
        "meta_mean_motion_ddot": 0,
        "tle_line1": "1 41875U 16073A   25361.48320968  .00000508  00000+0  10881-3 0  9992",
        "tle_line2": "2 41875  98.1422 253.6521 0001288  82.5721 277.5627 14.62796477483724"
      },
      "geometry": {
        "type": "Point",
        "coordinates": [
          21.232360461862477,
          -79.80244561049666
        ]
      }
    },
    {
      "type": "Feature",
      "properties": {
        "norad_id": 41877,
        "name": "RESOURCESAT-2A",
        "group": "resource",
        "lat": -61.385198251980505,
        "lon": -124.86961991261822,
        "alt_km": 826.2551891310677,
        "timestamp": "2025-12-27T19:21:58.432103+00:00",
        "meta_object_name": "RESOURCESAT-2A",
        "meta_object_id": "2016-074A",
        "meta_epoch": "2025-12-27T11:28:18.475104",
        "meta_mean_motion": 14.21606843,
        "meta_eccentricity": 0.0001722,
        "meta_inclination": 98.7732,
        "meta_ra_of_asc_node": 71.2468,
        "meta_arg_of_pericenter": 193.6301,
        "meta_mean_anomaly": 166.483,
        "meta_ephemeris_type": 0,
        "meta_classification_type": "U",
        "meta_norad_cat_id": 41877,
        "meta_element_set_no": 999,
        "meta_rev_at_epoch": 46990,
        "meta_bstar": 0.00022429,
        "meta_mean_motion_dot": 4.47e-06,
        "meta_mean_motion_ddot": 0,
        "tle_line1": "1 41877U 16074A   25361.47799161  .00000447  00000+0  22429-3 0  9992",
        "tle_line2": "2 41877  98.7732  71.2468 0001722 193.6301 166.4830 14.21606843469909"
      },
      "geometry": {
        "type": "Point",
        "coordinates": [
          -124.86961991261822,
          -61.385198251980505
        ]
      }
    }
  ]
}